[{"OBJECT_NAME":"STARLINK-36967","OBJECT_ID":"2026-039AD","EPOCH":"2026-03-18T06:00:02.000160","MEAN_MOTION":15.54002437,"ECCENTRICITY":0.00016031,"INCLINATION":43.0003,"RA_OF_ASC_NODE":3.0561,"ARG_OF_PERICENTER":261.3051,"MEAN_ANOMALY":122.3731,"EPHEMERIS_TYPE":0,"CLASSIFICATION_TYPE":"U","NORAD_CAT_ID":68013,"ELEMENT_SET_NO":999,"REV_AT_EPOCH":425,"BSTAR":-0.031031875,"MEAN_MOTION_DOT":-0.0182615,"MEAN_MOTION_DDOT":0},{"OBJECT_NAME":"STARLINK-36985","OBJECT_ID":"2026-039AE","EPOCH":"2026-03-18T06:00:02.000160","MEAN_MOTION":15.71122515,"ECCENTRICITY":0.00015883,"INCLINATION":42.9998,"RA_OF_ASC_NODE":2.313,"ARG_OF_PERICENTER":265.2906,"MEAN_ANOMALY":57.3817,"EPHEMERIS_TYPE":0,"CLASSIFICATION_TYPE":"U","NORAD_CAT_ID":68014,"ELEMENT_SET_NO":999,"REV_AT_EPOCH":425,"BSTAR":-0.016368353,"MEAN_MOTION_DOT":-0.01851996,"MEAN_MOTION_DDOT":0},{"OBJECT_NAME":"STARLINK-36335","OBJECT_ID":"2026-040A","EPOCH":"2026-03-18T06:00:02.000160","MEAN_MOTION":15.83112772,"ECCENTRICITY":0.00015365,"INCLINATION":97.2714,"RA_OF_ASC_NODE":26.0933,"ARG_OF_PERICENTER":97.1127,"MEAN_ANOMALY":181.9184,"EPHEMERIS_TYPE":0,"CLASSIFICATION_TYPE":"U","NORAD_CAT_ID":68015,"ELEMENT_SET_NO":999,"REV_AT_EPOCH":375,"BSTAR":-0.0074501954,"MEAN_MOTION_DOT":-0.01386957,"MEAN_MOTION_DDOT":0},{"OBJECT_NAME":"STARLINK-36923","OBJECT_ID":"2026-040B","EPOCH":"2026-03-18T06:00:02.000160","MEAN_MOTION":15.83048169,"ECCENTRICITY":0.00012878,"INCLINATION":97.2718,"RA_OF_ASC_NODE":26.0979,"ARG_OF_PERICENTER":93.8622,"MEAN_ANOMALY":193.9118,"EPHEMERIS_TYPE":0,"CLASSIFICATION_TYPE":"U","NORAD_CAT_ID":68016,"ELEMENT_SET_NO":999,"REV_AT_EPOCH":380,"BSTAR":-0.0075513585,"MEAN_MOTION_DOT":-0.01399418,"MEAN_MOTION_DDOT":0},{"OBJECT_NAME":"STARLINK-36568","OBJECT_ID":"2026-040C","EPOCH":"2026-03-18T06:00:02.000160","MEAN_MOTION":15.8303503,"ECCENTRICITY":0.00015415,"INCLINATION":97.2714,"RA_OF_ASC_NODE":26.0993,"ARG_OF_PERICENTER":96.9332,"MEAN_ANOMALY":195.1554,"EPHEMERIS_TYPE":0,"CLASSIFICATION_TYPE":"U","NORAD_CAT_ID":68017,"ELEMENT_SET_NO":999,"REV_AT_EPOCH":380,"BSTAR":-0.0075758434,"MEAN_MOTION_DOT":-0.01402793,"MEAN_MOTION_DDOT":0},{"OBJECT_NAME":"STARLINK-36930","OBJECT_ID":"2026-040D","EPOCH":"2026-03-18T06:00:02.000160","MEAN_MOTION":15.83080408,"ECCENTRICITY":0.00015952,"INCLINATION":97.2711,"RA_OF_ASC_NODE":26.0955,"ARG_OF_PERICENTER":112.7728,"MEAN_ANOMALY":170.6309,"EPHEMERIS_TYPE":0,"CLASSIFICATION_TYPE":"U","NORAD_CAT_ID":68018,"ELEMENT_SET_NO":999,"REV_AT_EPOCH":380,"BSTAR":-0.0075050331,"MEAN_MOTION_DOT":-0.01394024,"MEAN_MOTION_DDOT":0},{"OBJECT_NAME":"STARLINK-36921","OBJECT_ID":"2026-040E","EPOCH":"2026-03-18T06:00:02.000160","MEAN_MOTION":15.83060476,"ECCENTRICITY":0.00014174,"INCLINATION":97.272,"RA_OF_ASC_NODE":26.1041,"ARG_OF_PERICENTER":112.0621,"MEAN_ANOMALY":188.519,"EPHEMERIS_TYPE":0,"CLASSIFICATION_TYPE":"U","NORAD_CAT_ID":68019,"ELEMENT_SET_NO":999,"REV_AT_EPOCH":380,"BSTAR":-0.0075909749,"MEAN_MOTION_DOT":-0.01406606,"MEAN_MOTION_DDOT":0},{"OBJECT_NAME":"STARLINK-36928","OBJECT_ID":"2026-040F","EPOCH":"2026-03-18T06:00:02.000160","MEAN_MOTION":15.8308634,"ECCENTRICITY":0.00013661,"INCLINATION":97.2713,"RA_OF_ASC_NODE":26.1007,"ARG_OF_PERICENTER":105.2818,"MEAN_ANOMALY":190.9587,"EPHEMERIS_TYPE":0,"CLASSIFICATION_TYPE":"U","NORAD_CAT_ID":68020,"ELEMENT_SET_NO":999,"REV_AT_EPOCH":380,"BSTAR":-0.0075787852,"MEAN_MOTION_DOT":-0.014061,"MEAN_MOTION_DDOT":0},{"OBJECT_NAME":"STARLINK-36858","OBJECT_ID":"2026-040G","EPOCH":"2026-03-18T03:31:59.645568","MEAN_MOTION":15.93719586,"ECCENTRICITY":0.00029258,"INCLINATION":97.2721,"RA_OF_ASC_NODE":26.1289,"ARG_OF_PERICENTER":52.1701,"MEAN_ANOMALY":307.9839,"EPHEMERIS_TYPE":0,"CLASSIFICATION_TYPE":"U","NORAD_CAT_ID":68021,"ELEMENT_SET_NO":999,"REV_AT_EPOCH":269,"BSTAR":9.879512e-5,"MEAN_MOTION_DOT":0.00034885,"MEAN_MOTION_DDOT":2.668894e-6},{"OBJECT_NAME":"STARLINK-36916","OBJECT_ID":"2026-040H","EPOCH":"2026-03-18T06:00:02.000160","MEAN_MOTION":15.83029715,"ECCENTRICITY":0.00015682,"INCLINATION":97.2712,"RA_OF_ASC_NODE":26.1069,"ARG_OF_PERICENTER":112.4067,"MEAN_ANOMALY":196.8244,"EPHEMERIS_TYPE":0,"CLASSIFICATION_TYPE":"U","NORAD_CAT_ID":68022,"ELEMENT_SET_NO":999,"REV_AT_EPOCH":380,"BSTAR":-0.0076815581,"MEAN_MOTION_DOT":-0.01447807,"MEAN_MOTION_DDOT":0},{"OBJECT_NAME":"STARLINK-36871","OBJECT_ID":"2026-040J","EPOCH":"2026-03-18T06:00:02.000160","MEAN_MOTION":15.83015578,"ECCENTRICITY":0.00012719,"INCLINATION":97.2709,"RA_OF_ASC_NODE":26.108,"ARG_OF_PERICENTER":96.6033,"MEAN_ANOMALY":216.9537,"EPHEMERIS_TYPE":0,"CLASSIFICATION_TYPE":"U","NORAD_CAT_ID":68023,"ELEMENT_SET_NO":999,"REV_AT_EPOCH":380,"BSTAR":-0.0077375009,"MEAN_MOTION_DOT":-0.014561,"MEAN_MOTION_DDOT":0},{"OBJECT_NAME":"STARLINK-36891","OBJECT_ID":"2026-040K","EPOCH":"2026-03-18T06:00:02.000160","MEAN_MOTION":15.82926368,"ECCENTRICITY":0.00014082,"INCLINATION":97.2707,"RA_OF_ASC_NODE":26.1101,"ARG_OF_PERICENTER":92.185,"MEAN_ANOMALY":225.874,"EPHEMERIS_TYPE":0,"CLASSIFICATION_TYPE":"U","NORAD_CAT_ID":68024,"ELEMENT_SET_NO":999,"REV_AT_EPOCH":380,"BSTAR":-0.0078214848,"MEAN_MOTION_DOT":-0.01464724,"MEAN_MOTION_DDOT":0},{"OBJECT_NAME":"STARLINK-36378","OBJECT_ID":"2026-040L","EPOCH":"2026-03-18T06:00:02.000160","MEAN_MOTION":15.82832306,"ECCENTRICITY":0.00012509,"INCLINATION":97.2728,"RA_OF_ASC_NODE":26.1162,"ARG_OF_PERICENTER":97.451,"MEAN_ANOMALY":229.3765,"EPHEMERIS_TYPE":0,"CLASSIFICATION_TYPE":"U","NORAD_CAT_ID":68025,"ELEMENT_SET_NO":999,"REV_AT_EPOCH":375,"BSTAR":-0.0078730335,"MEAN_MOTION_DOT":-0.01467387,"MEAN_MOTION_DDOT":0},{"OBJECT_NAME":"STARLINK-36884","OBJECT_ID":"2026-040M","EPOCH":"2026-03-18T06:00:02.000160","MEAN_MOTION":15.82871911,"ECCENTRICITY":0.00013065,"INCLINATION":97.2718,"RA_OF_ASC_NODE":26.1126,"ARG_OF_PERICENTER":97.3234,"MEAN_ANOMALY":225.1424,"EPHEMERIS_TYPE":0,"CLASSIFICATION_TYPE":"U","NORAD_CAT_ID":68026,"ELEMENT_SET_NO":999,"REV_AT_EPOCH":380,"BSTAR":-0.0078711901,"MEAN_MOTION_DOT":-0.01469552,"MEAN_MOTION_DDOT":0},{"OBJECT_NAME":"STARLINK-36940","OBJECT_ID":"2026-040N","EPOCH":"2026-03-18T06:00:02.000160","MEAN_MOTION":15.80742537,"ECCENTRICITY":0.00013072,"INCLINATION":97.2812,"RA_OF_ASC_NODE":26.1443,"ARG_OF_PERICENTER":95.3307,"MEAN_ANOMALY":285.0098,"EPHEMERIS_TYPE":0,"CLASSIFICATION_TYPE":"U","NORAD_CAT_ID":68027,"ELEMENT_SET_NO":999,"REV_AT_EPOCH":390,"BSTAR":0.0010512804,"MEAN_MOTION_DOT":0.0020535,"MEAN_MOTION_DDOT":0},{"OBJECT_NAME":"STARLINK-36253","OBJECT_ID":"2026-040P","EPOCH":"2026-03-18T06:00:02.000160","MEAN_MOTION":15.76482376,"ECCENTRICITY":0.0001738,"INCLINATION":97.2857,"RA_OF_ASC_NODE":25.8989,"ARG_OF_PERICENTER":99.2415,"MEAN_ANOMALY":76.7854,"EPHEMERIS_TYPE":0,"CLASSIFICATION_TYPE":"U","NORAD_CAT_ID":68028,"ELEMENT_SET_NO":999,"REV_AT_EPOCH":390,"BSTAR":-0.013396603,"MEAN_MOTION_DOT":-0.01850534,"MEAN_MOTION_DDOT":0}]
