STARLINK-36967          
1 68013U 26039AD  26077.25002315 -.01826150  00000+0 -31032-1 0  9992
2 68013  43.0003   3.0561 0001603 261.3051 122.3731 15.54002437  4254
STARLINK-36985          
1 68014U 26039AE  26077.25002315 -.01851996  00000+0 -16368-1 0  9994
2 68014  42.9998   2.3130 0001588 265.2906  57.3817 15.71122515  4255
STARLINK-36335          
1 68015U 26040A   26077.25002315 -.01386957  00000+0 -74502-2 0  9992
2 68015  97.2714  26.0933 0001536  97.1127 181.9184 15.83112772  3751
STARLINK-36923          
1 68016U 26040B   26077.25002315 -.01399418  00000+0 -75514-2 0  9993
2 68016  97.2718  26.0979 0001287  93.8622 193.9118 15.83048169  3806
STARLINK-36568          
1 68017U 26040C   26077.25002315 -.01402793  00000+0 -75758-2 0  9995
2 68017  97.2714  26.0993 0001541  96.9332 195.1554 15.83035030  3805
STARLINK-36930          
1 68018U 26040D   26077.25002315 -.01394024  00000+0 -75050-2 0  9998
2 68018  97.2711  26.0955 0001595 112.7728 170.6309 15.83080408  3801
STARLINK-36921          
1 68019U 26040E   26077.25002315 -.01406606  00000+0 -75910-2 0  9994
2 68019  97.2720  26.1041 0001417 112.0621 188.5190 15.83060476  3806
STARLINK-36928          
1 68020U 26040F   26077.25002315 -.01406100  00000+0 -75788-2 0  9998
2 68020  97.2713  26.1007 0001366 105.2818 190.9587 15.83086340  3802
STARLINK-36858          
1 68021U 26040G   26077.14721812  .00034885  26689-5  98795-4 0  9993
2 68021  97.2721  26.1289 0002925  52.1701 307.9839 15.93719586  2699
STARLINK-36916          
1 68022U 26040H   26077.25002315 -.01447807  00000+0 -76816-2 0  9992
2 68022  97.2712  26.1069 0001568 112.4067 196.8244 15.83029715  3809
STARLINK-36871          
1 68023U 26040J   26077.25002315 -.01456100  00000+0 -77375-2 0  9990
2 68023  97.2709  26.1080 0001271  96.6033 216.9537 15.83015578  3807
STARLINK-36891          
1 68024U 26040K   26077.25002315 -.01464724  00000+0 -78215-2 0  9996
2 68024  97.2707  26.1101 0001408  92.1850 225.8740 15.82926368  3802
STARLINK-36378          
1 68025U 26040L   26077.25002315 -.01467387  00000+0 -78730-2 0  9997
2 68025  97.2728  26.1162 0001250  97.4510 229.3765 15.82832306  3757
STARLINK-36884          
1 68026U 26040M   26077.25002315 -.01469552  00000+0 -78712-2 0  9994
2 68026  97.2718  26.1126 0001306  97.3234 225.1424 15.82871911  3808
STARLINK-36940          
1 68027U 26040N   26077.25002315  .00205350  00000+0  10513-2 0  9991
2 68027  97.2812  26.1443 0001307  95.3307 285.0098 15.80742537  3908
STARLINK-36253          
1 68028U 26040P   26077.25002315 -.01850534  00000+0 -13397-1 0  9997
2 68028  97.2857  25.8989 0001738  99.2415  76.7854 15.76482376  3902
